{"type": "FeatureCollection", "features": [ {"type": "Feature", "properties": {"norad_id": 43622, "name": "BEIDOU-3 M13 (C32)", "group": "beidou", "lat": -34.999111808100764, "lon": 41.19697587753597, "alt_km": 21517.3735466811, "timestamp": "2025-12-12T14:39:18.204867+00:00", "meta": {"OBJECT_NAME": "BEIDOU-3 M13 (C32)", "OBJECT_ID": "2018-072A", "EPOCH": "2025-12-09T23:46:31.895616", "MEAN_MOTION": 1.8623066, "ECCENTRICITY": 0.00056577, "INCLINATION": 56.4568, "RA_OF_ASC_NODE": 68.9118, "ARG_OF_PERICENTER": 299.2639, "MEAN_ANOMALY": 60.7025, "EPHEMERIS_TYPE": 0, "CLASSIFICATION_TYPE": "U", "NORAD_CAT_ID": 43622, "ELEMENT_SET_NO": 999, "REV_AT_EPOCH": 4913, "BSTAR": 0, "MEAN_MOTION_DOT": -5.2e-07, "MEAN_MOTION_DDOT": 0}, "tle": {"line1": "1 43622U 18072A   25343.99064694 -.00000052  00000+0  00000+0 0  9995", "line2": "2 43622  56.4568  68.9118 0005657 299.2639  60.7025  1.86230660 49138"}}, "geometry": {"type": "Point", "coordinates": [41.19697587753597, -34.999111808100764]}}, {"type": "Feature", "properties": {"norad_id": 43623, "name": "BEIDOU-3 M14 (C33)", "group": "beidou", "lat": 37.41436993964545, "lon": 99.27065996781481, "alt_km": 21520.63891609622, "timestamp": "2025-12-12T14:39:18.204876+00:00", "meta": {"OBJECT_NAME": "BEIDOU-3 M14 (C33)", "OBJECT_ID": "2018-072B", "EPOCH": "2025-12-09T20:32:48.183072", "MEAN_MOTION": 1.86230666, "ECCENTRICITY": 0.00032297, "INCLINATION": 56.4585, "RA_OF_ASC_NODE": 68.9098, "ARG_OF_PERICENTER": 335.6302, "MEAN_ANOMALY": 24.3775, "EPHEMERIS_TYPE": 0, "CLASSIFICATION_TYPE": "U", "NORAD_CAT_ID": 43623, "ELEMENT_SET_NO": 999, "REV_AT_EPOCH": 4912, "BSTAR": 0, "MEAN_MOTION_DOT": -5.1e-07, "MEAN_MOTION_DDOT": 0}, "tle": {"line1": "1 43623U 18072B   25343.85611323 -.00000051  00000+0  00000+0 0  9997", "line2": "2 43623  56.4585  68.9098 0003229 335.6302  24.3775  1.86230666 49123"}}, "geometry": {"type": "Point", "coordinates": [99.27065996781481, 37.41436993964545]}}, {"type": "Feature", "properties": {"norad_id": 43647, "name": "BEIDOU-3 M16 (C35)", "group": "beidou", "lat": -44.144797583634826, "lon": -97.78994045271399, "alt_km": 21528.92743717386, "timestamp": "2025-12-12T14:39:18.204886+00:00", "meta": {"OBJECT_NAME": "BEIDOU-3 M16 (C35)", "OBJECT_ID": "2018-078A", "EPOCH": "2025-12-12T03:52:56.248896", "MEAN_MOTION": 1.86232291, "ECCENTRICITY": 0.00071745, "INCLINATION": 54.2625, "RA_OF_ASC_NODE": 306.5413, "ARG_OF_PERICENTER": 19.216, "MEAN_ANOMALY": 340.802, "EPHEMERIS_TYPE": 0, "CLASSIFICATION_TYPE": "U", "NORAD_CAT_ID": 43647, "ELEMENT_SET_NO": 999, "REV_AT_EPOCH": 4867, "BSTAR": 0, "MEAN_MOTION_DOT": -9.2e-07, "MEAN_MOTION_DDOT": 0}, "tle": {"line1": "1 43647U 18078A   25346.16176214 -.00000092  00000+0  00000+0 0  9996", "line2": "2 43647  54.2625 306.5413 0007174  19.2160 340.8020  1.86232291 48676"}}, "geometry": {"type": "Point", "coordinates": [-97.78994045271399, -44.144797583634826]}}, {"type": "Feature", "properties": {"norad_id": 43648, "name": "BEIDOU-3 M15 (C34)", "group": "beidou", "lat": -27.257264105475286, "lon": 148.27135411871743, "alt_km": 21541.169272288247, "timestamp": "2025-12-12T14:39:18.204897+00:00", "meta": {"OBJECT_NAME": "BEIDOU-3 M15 (C34)", "OBJECT_ID": "2018-078B", "EPOCH": "2025-12-09T14:32:59.144640", "MEAN_MOTION": 1.86231871, "ECCENTRICITY": 0.0003622, "INCLINATION": 54.2606, "RA_OF_ASC_NODE": 306.6314, "ARG_OF_PERICENTER": 18.0065, "MEAN_ANOMALY": 341.9965, "EPHEMERIS_TYPE": 0, "CLASSIFICATION_TYPE": "U", "NORAD_CAT_ID": 43648, "ELEMENT_SET_NO": 999, "REV_AT_EPOCH": 4864, "BSTAR": 0, "MEAN_MOTION_DOT": -7.7e-07, "MEAN_MOTION_DDOT": 0}, "tle": {"line1": "1 43648U 18078B   25343.60624010 -.00000077  00000+0  00000+0 0  9998", "line2": "2 43648  54.2606 306.6314 0003622  18.0065 341.9965  1.86231871 48642"}}, "geometry": {"type": "Point", "coordinates": [148.27135411871743, -27.257264105475286]}}, {"type": "Feature", "properties": {"norad_id": 43683, "name": "BEIDOU-3 G1 (C59)", "group": "beidou", "lat": -0.9384836270131738, "lon": 81.4451966245082, "alt_km": 35785.82218395754, "timestamp": "2025-12-12T14:39:18.204907+00:00", "meta": {"OBJECT_NAME": "BEIDOU-3 G1 (C59)", "OBJECT_ID": "2018-085A", "EPOCH": "2025-12-12T07:17:54.181248", "MEAN_MOTION": 1.00270805, "ECCENTRICITY": 0.0001747, "INCLINATION": 2.6069, "RA_OF_ASC_NODE": 102.988, "ARG_OF_PERICENTER": 63.016, "MEAN_ANOMALY": 164.7936, "EPHEMERIS_TYPE": 0, "CLASSIFICATION_TYPE": "U", "NORAD_CAT_ID": 43683, "ELEMENT_SET_NO": 999, "REV_AT_EPOCH": 2618, "BSTAR": 0, "MEAN_MOTION_DOT": -2.67e-06, "MEAN_MOTION_DDOT": 0}, "tle": {"line1": "1 43683U 18085A   25346.30409932 -.00000267  00000+0  00000+0 0  9990", "line2": "2 43683   2.6069 102.9880 0001747  63.0160 164.7936  1.00270805 26188"}}, "geometry": {"type": "Point", "coordinates": [81.4451966245082, -0.9384836270131738]}}, {"type": "Feature", "properties": {"norad_id": 43706, "name": "BEIDOU-3 M17 (C36)", "group": "beidou", "lat": 50.42966454199077, "lon": -52.32726936033892, "alt_km": 21538.68718447534, "timestamp": "2025-12-12T14:39:18.204918+00:00", "meta": {"OBJECT_NAME": "BEIDOU-3 M17 (C36)", "OBJECT_ID": "2018-093A", "EPOCH": "2025-12-12T04:17:11.485824", "MEAN_MOTION": 1.86228421, "ECCENTRICITY": 0.00062217, "INCLINATION": 54.1726, "RA_OF_ASC_NODE": 188.6407, "ARG_OF_PERICENTER": 307.45, "MEAN_ANOMALY": 230.9206, "EPHEMERIS_TYPE": 0, "CLASSIFICATION_TYPE": "U", "NORAD_CAT_ID": 43706, "ELEMENT_SET_NO": 999, "REV_AT_EPOCH": 4805, "BSTAR": 0, "MEAN_MOTION_DOT": 7.8e-07, "MEAN_MOTION_DDOT": 0}, "tle": {"line1": "1 43706U 18093A   25346.17860516  .00000078  00000+0  00000+0 0  9998", "line2": "2 43706  54.1726 188.6407 0006221 307.4500 230.9206  1.86228421 48054"}}, "geometry": {"type": "Point", "coordinates": [-52.32726936033892, 50.42966454199077]}}, {"type": "Feature", "properties": {"norad_id": 43707, "name": "BEIDOU-3 M18 (C37)", "group": "beidou", "lat": -16.777131963043487, "lon": 21.204676805911138, "alt_km": 21546.34991146078, "timestamp": "2025-12-12T14:39:18.204928+00:00", "meta": {"OBJECT_NAME": "BEIDOU-3 M18 (C37)", "OBJECT_ID": "2018-093B", "EPOCH": "2025-12-11T18:34:39.857952", "MEAN_MOTION": 1.8622663, "ECCENTRICITY": 0.00063207, "INCLINATION": 54.1731, "RA_OF_ASC_NODE": 188.6462, "ARG_OF_PERICENTER": 352.4286, "MEAN_ANOMALY": 7.6208, "EPHEMERIS_TYPE": 0, "CLASSIFICATION_TYPE": "U", "NORAD_CAT_ID": 43707, "ELEMENT_SET_NO": 999, "REV_AT_EPOCH": 4804, "BSTAR": 0, "MEAN_MOTION_DOT": 7.2e-07, "MEAN_MOTION_DDOT": 0}, "tle": {"line1": "1 43707U 18093B   25345.77407243  .00000072  00000+0  00000+0 0  9992", "line2": "2 43707  54.1731 188.6462 0006320 352.4286   7.6208  1.86226630 48043"}}, "geometry": {"type": "Point", "coordinates": [21.204676805911138, -16.777131963043487]}}, {"type": "Feature", "properties": {"norad_id": 44204, "name": "BEIDOU-3 IGSO-1 (C38)", "group": "beidou", "lat": 12.728069280453507, "lon": 47.582427774452945, "alt_km": 35894.63918481804, "timestamp": "2025-12-12T14:39:18.204938+00:00", "meta": {"OBJECT_NAME": "BEIDOU-3 IGSO-1 (C38)", "OBJECT_ID": "2019-023A", "EPOCH": "2025-11-19T14:15:02.708640", "MEAN_MOTION": 1.00252177, "ECCENTRICITY": 0.0026966, "INCLINATION": 58.4003, "RA_OF_ASC_NODE": 39.8168, "ARG_OF_PERICENTER": 221.2202, "MEAN_ANOMALY": 126.9723, "EPHEMERIS_TYPE": 0, "CLASSIFICATION_TYPE": "U", "NORAD_CAT_ID": 44204, "ELEMENT_SET_NO": 999, "REV_AT_EPOCH": 510, "BSTAR": 0, "MEAN_MOTION_DOT": -2.26e-06, "MEAN_MOTION_DDOT": 0}, "tle": {"line1": "1 44204U 19023A   25323.59378135 -.00000226  00000+0  00000+0 0  9994", "line2": "2 44204  58.4003  39.8168 0026966 221.2202 126.9723  1.00252177  5102"}}, "geometry": {"type": "Point", "coordinates": [47.582427774452945, 12.728069280453507]}}, {"type": "Feature", "properties": {"norad_id": 44231, "name": "BEIDOU-2 G8 (C01)", "group": "beidou", "lat": 0.3424665468280096, "lon": 85.95618544923376, "alt_km": 35802.924882409476, "timestamp": "2025-12-12T14:39:18.204951+00:00", "meta": {"OBJECT_NAME": "BEIDOU-2 G8 (C01)", "OBJECT_ID": "2019-027A", "EPOCH": "2025-12-12T07:19:09.060672", "MEAN_MOTION": 1.00267912, "ECCENTRICITY": 0.00086732, "INCLINATION": 1.6611, "RA_OF_ASC_NODE": 74.7001, "ARG_OF_PERICENTER": 255.6977, "MEAN_ANOMALY": 5.1435, "EPHEMERIS_TYPE": 0, "CLASSIFICATION_TYPE": "U", "NORAD_CAT_ID": 44231, "ELEMENT_SET_NO": 999, "REV_AT_EPOCH": 2420, "BSTAR": 0, "MEAN_MOTION_DOT": -2.38e-06, "MEAN_MOTION_DDOT": 0}, "tle": {"line1": "1 44231U 19027A   25346.30496598 -.00000238  00000+0  00000+0 0  9999", "line2": "2 44231   1.6611  74.7001 0008673 255.6977   5.1435  1.00267912 24209"}}, "geometry": {"type": "Point", "coordinates": [85.95618544923376, 0.3424665468280096]}}, {"type": "Feature", "properties": {"norad_id": 44337, "name": "BEIDOU-3 IGSO-2 (C39)", "group": "beidou", "lat": -54.1241077591896, "lon": 54.606092790106864, "alt_km": 35709.84716865903, "timestamp": "2025-12-12T14:39:18.204962+00:00", "meta": {"OBJECT_NAME": "BEIDOU-3 IGSO-2 (C39)", "OBJECT_ID": "2019-035A", "EPOCH": "2025-12-10T21:20:38.716800", "MEAN_MOTION": 1.00271557, "ECCENTRICITY": 0.00373373, "INCLINATION": 55.2247, "RA_OF_ASC_NODE": 160.5169, "ARG_OF_PERICENTER": 202.3364, "MEAN_ANOMALY": 156.6887, "EPHEMERIS_TYPE": 0, "CLASSIFICATION_TYPE": "U", "NORAD_CAT_ID": 44337, "ELEMENT_SET_NO": 999, "REV_AT_EPOCH": 2377, "BSTAR": 0, "MEAN_MOTION_DOT": -6.6e-07, "MEAN_MOTION_DDOT": 0}, "tle": {"line1": "1 44337U 19035A   25344.88933700 -.00000066  00000+0  00000+0 0  9996", "line2": "2 44337  55.2247 160.5169 0037337 202.3364 156.6887  1.00271557 23777"}}, "geometry": {"type": "Point", "coordinates": [54.606092790106864, -54.1241077591896]}}]}